LEMUR-2-KUNGFOO         
1 42774U 17036K   18009.23567618  .00001365  00000-0  65119-4 0  9998
2 42774  97.4247  71.2645 0013031 260.4169  99.5594 15.20709265 30337
AALTO-1                 
1 42775U 17036L   18009.24406482  .00000782  00000-0  38935-4 0  9999
2 42775  97.4241  71.2443 0012738 259.5486 100.4314 15.20453972 30346
URSA MAIOR              
1 42776U 17036M   18009.23784373  .00000816  00000-0  40421-4 0  9998
2 42776  97.4245  71.2606 0012607 259.7175 100.2639 15.20516534 30346
COMPASS 2               
1 42777U 17036N   18009.24558017  .00001546  00000-0  72371-4 0  9994
2 42777  97.4259  71.4307 0011597 263.8761  96.1153 15.21180564 30341
LEMUR-2-LYNSEY-SYMO     
1 42779U 17036Q   18009.41072999  .00001576  00000-0  73131-4 0  9993
2 42779  97.4253  71.6478 0011089 270.1368  89.8597 15.21479115 30364
LEMUR-2-LISASAURUS      
1 42780U 17036R   18009.21972623  .00001420  00000-0  66426-4 0  9993
2 42780  97.4247  71.4356 0011007 271.3634  88.6340 15.21350725 30347
LEMUR-2-SAM-AMELIA      
1 42781U 17036S   18009.20804094  .00001631  00000-0  75466-4 0  9997
2 42781  97.4250  71.4507 0010920 271.4961  88.5024 15.21514024 30338
LEMUR-2-MCPEAKE         
1 42782U 17036T   18009.20394109  .00001574  00000-0  72912-4 0  9998
2 42782  97.4252  71.4617 0010777 270.9513  89.0488 15.21545478 30337
DIAMOND RED             
1 42783U 17036U   18009.22701927  .00000422  00000-0  22084-4 0  9997
2 42783  97.4243  71.4205 0010921 273.5033  86.4953 15.21115848 30341
PEGASUS                 
1 42784U 17036V   18009.74405128  .00001073  00000-0  51082-4 0  9992
2 42784  97.4244  71.9548 0010864 271.7758  88.2233 15.21255260 30421
DIAMOND GREEN           
1 42785U 17036W   18009.22616397  .00000969  00000-0  46654-4 0  9990
2 42785  97.4246  71.4277 0010816 274.2288  85.7711 15.21116013 30415
DIAMOND BLUE            
1 42786U 17036X   18009.22511145  .00000976  00000-0  46935-4 0  9996
2 42786  97.4246  71.4278 0010639 274.5930  85.4091 15.21111849 30417
NUDTSAT                 
1 42787U 17036Y   18009.84425742  .00001583  00000-0  73050-4 0  9995
2 42787  97.4248  72.1284 0010485 271.3707  88.6327 15.21657389 30287
SUCHAI                  
1 42788U 17036Z   18009.72559949  .00001272  00000-0  59667-4 0  9993
2 42788  97.4245  71.9774 0010503 271.9618  88.0415 15.21458568 30497
SKCUBE                  
1 42789U 17036AA  18009.19665039  .00001235  00000-0  58007-4 0  9999
2 42789  97.4243  71.4596 0010326 274.0984  85.9071 15.21451678 30338
VZLUSAT-1               
1 42790U 17036AB  18009.11304115  .00001522  00000-0  70288-4 0  9992
2 42790  97.4244  71.4150 0010037 274.8115  85.1975 15.21687929 30324
ROBUSTA-1B              
1 42792U 17036AD  18009.83735023  .00001194  00000-0  55987-4 0  9993
2 42792  97.4241  72.1241 0009895 272.8047  87.2056 15.21586988 30443
CICERO 6                
1 42793U 17036AE  18009.23104356  .00000763  00000-0  36892-4 0  9992
2 42793  97.4238  71.5542 0009000 276.7851  83.2361 15.21577545 30423
D-SAT                   
1 42794U 17036AF  18009.10602641  .00000365  00000-0  37140-4 0  9994
2 42794  97.6160  69.5769 0128817  91.4762 270.1217 14.90757964 30022
TOKI                    
1 42820U 98067MU  18009.43147769  .00015968  00000-0  18762-3 0  9991
2 42820  51.6374  84.7759 0002861 295.0418  65.0278 15.61624025 29023
GHANASAT-1              
1 42821U 98067MV  18009.44629580  .00014938  00000-0  17756-3 0  9997
2 42821  51.6374  84.8752 0002883 298.8371  61.2333 15.61382343 28989
MAZAALAI (NUMSAT-1)     
1 42822U 98067MW  18009.57169640  .00014944  00000-0  17702-3 0  9996
2 42822  51.6377  84.2145 0002896 301.7956  58.2756 15.61471556 29026
BRAC ONNESHA            
1 42823U 98067MX  18009.44531440  .00015266  00000-0  18057-3 0  9996
2 42823  51.6382  84.8783 0005872 317.1637  42.8898 15.61480350 28983
NIGERIAEDUSAT-1         
1 42824U 98067MY  18009.45455032  .00015444  00000-0  18336-3 0  9998
2 42824  51.6387  84.9460 0005745 317.8806  42.1745 15.61371899 28976
LEMUR-2-GREENBERG       
1 42837U 17042N   18009.77484044  .00000516  00000-0  57207-4 0  9991
2 42837  97.6084 278.1015 0013658  11.2129 348.9392 14.91284011 26741
LEMUR-2-ANDIS           
1 42838U 17042P   18009.57106059  .00000576  00000-0  63161-4 0  9999
2 42838  97.6083 277.9098 0013785  11.7028 348.4509 14.91305532 26717
LEMUR-2-MONSON          
1 42839U 17042Q   18009.69719786  .00000429  00000-0  48395-4 0  9999
2 42839  97.6083 278.0484 0013432  10.7834 349.3670 14.91319266 26732
LEMUR-2-FURIAUS         
1 42840U 17042R   18009.28656453  .00000734  00000-0  78751-4 0  9995
2 42840  97.6083 277.6687 0013581  12.2745 347.8802 14.91439047 26669
LEMUR-2-PETERG          
1 42841U 17042S   18009.53915915  .00000656  00000-0  70770-4 0  9991
2 42841  97.6084 277.9501 0013171  10.2438 349.9046 14.91570133 26712
LEMUR-2-DEMBITZ         
1 42842U 17042T   18009.20114424  .00000595  00000-0  64642-4 0  9995
2 42842  97.6083 277.6265 0013227  11.8746 348.2782 14.91590595 26664
LEMUR-2-ZACHARY         
1 42845U 17042W   18009.51157492  .00000484  00000-0  53271-4 0  9997
2 42845  97.6031 277.8655 0013675  15.0651 345.0972 14.91788035 26702
FLOCK 2K-03             
1 42850U 17042AB  18009.62233974  .00002684  00000-0  80343-4 0  9999
2 42850  96.9936 274.1911 0010592 337.7781  22.3004 15.35304711 27292
FLOCK 2K-04             
1 42851U 17042AC  18009.62547108  .00002118  00000-0  63836-4 0  9997
2 42851  96.9942 274.1930 0010478 340.3473  19.7366 15.35308054 27297
FLOCK 2K-01             
1 42852U 17042AD  18009.68907639  .00002645  00000-0  79196-4 0  9994
2 42852  96.9936 274.2515 0010225 338.8504  21.2317 15.35316437 27308
FLOCK 2K-02             
1 42853U 17042AE  18009.19969131  .00001578  00000-0  51033-4 0  9990
2 42853  96.9951 273.5890 0011237 339.4460  20.6330 15.33405716 27211
FLOCK 2K-47             
1 42854U 17042AF  18009.62056023  .00001726  00000-0  52430-4 0  9993
2 42854  96.9937 274.1917 0010081 336.1682  23.9095 15.35303647 27293
FLOCK 2K-48             
1 42855U 17042AG  18009.61925324  .00001910  00000-0  57779-4 0  9998
2 42855  96.9937 274.1999 0010000 336.7982  23.2809 15.35310737 27298
FLOCK 2K-45             
1 42856U 17042AH  18009.42192386  .00003024  00000-0  90291-4 0  9996
2 42856  96.9932 274.0116 0010022 335.8836  24.1938 15.35297784 27262
FLOCK 2K-24             
1 42857U 17042AJ  18009.61989014  .00001509  00000-0  46505-4 0  9995
2 42857  96.9940 274.1947 0010121 332.2118  27.8584 15.35032548 27294
FLOCK 2K-46             
1 42858U 17042AK  18009.29001549  .00002263  00000-0  68098-4 0  9997
2 42858  96.9939 273.8996 0010064 336.7029  23.3758 15.35293630 27249
FLOCK 2K-23             
1 42859U 17042AL  18009.28823805  .00001757  00000-0  53360-4 0  9997
2 42859  96.9942 273.8985 0010139 337.6784  22.4018 15.35288429 27242
FLOCK 2K-21             
1 42860U 17042AM  18009.15663067  .00008660  00000-0  25424-3 0  9996
2 42860  96.9936 273.7754 0010085 338.1787  21.9027 15.35317984 27220
FLOCK 2K-22             
1 42861U 17042AN  18009.69309285  .00007864  00000-0  23099-3 0  9996
2 42861  96.9940 274.2583 0010049 335.2397  24.8364 15.35335105 27307
FLOCK 2K-07             
1 42862U 17042AP  18009.21978361  .00001667  00000-0  50722-4 0  9991
2 42862  96.9946 273.8433 0010442 338.4234  21.6569 15.35304277 27246
FLOCK 2K-08             
1 42863U 17042AQ  18009.15175143  .00003547  00000-0  10549-3 0  9993
2 42863  96.9937 273.7776 0010465 339.4837  20.5986 15.35301154 27221
FLOCK 2K-05             
1 42864U 17042AR  18009.54422566  .00001952  00000-0  59038-4 0  9996
2 42864  96.9944 274.1540 0010394 336.5700  23.5070 15.35293921 27287
FLOCK 2K-40             
1 42865U 17042AS  18009.67145204  .00001761  00000-0  53471-4 0  9995
2 42865  96.9944 274.2823 0010486 337.2602  22.8176 15.35295940 27309
FLOCK 2K-39             
1 42866U 17042AT  18009.53936575  .00007869  00000-0  23126-3 0  9998
2 42866  96.9936 274.1556 0010484 336.9706  23.1067 15.35313348 27285
FLOCK 2K-37             
1 42867U 17042AU  18009.27698736  .00008701  00000-0  25552-3 0  9995
2 42867  96.9938 273.9129 0010596 337.8456  22.2330 15.35304965 27241
FLOCK 2K-38             
1 42868U 17042AV  18009.53456888  .00007329  00000-0  21546-3 0  9999
2 42868  96.9937 274.1630 0010482 335.2897  24.7844 15.35326127 27281
FLOCK 2K-31             
1 42869U 17042AW  18009.79345381  .00002041  00000-0  61611-4 0  9997
2 42869  96.9941 274.4099 0010565 332.0403  28.0273 15.35302380 27322
FLOCK 2K-32             
1 42870U 17042AX  18009.20531406  .00009087  00000-0  26677-3 0  9999
2 42870  96.9933 273.8551 0010495 334.8330  25.2402 15.35302721 27234
FLOCK 2K-29             
1 42871U 17042AY  18009.26895921  .00001983  00000-0  59945-4 0  9993
2 42871  96.9941 273.9227 0010683 333.6558  26.4142 15.35293374 27241
FLOCK 2K-30             
1 42872U 17042AZ  18009.78831975  .00007443  00000-0  21908-3 0  9994
2 42872  96.9936 274.4174 0010565 332.8526  27.2165 15.35279533 27311
FLOCK 2K-44             
1 42873U 17042BA  18009.78705813  .00006220  00000-0  18334-3 0  9997
2 42873  96.9937 274.4223 0011138 320.4572  39.5859 15.35297350 27323
FLOCK 2K-43             
1 42874U 17042BB  18009.20141004  .00001724  00000-0  54543-4 0  9998
2 42874  96.9947 273.7234 0011886 324.4346  35.6105 15.33987286 27224
FLOCK 2K-41             
1 42875U 17042BC  18009.78071937  .00006723  00000-0  19624-3 0  9993
2 42875  96.9936 274.4270 0011377 323.2841  36.7623 15.35569935 27320
FLOCK 2K-36             
1 42876U 17042BD  18009.72132828  .00001432  00000-0  44188-4 0  9991
2 42876  96.9946 274.3653 0011716 322.7198  37.3232 15.35054025 27313
FLOCK 2K-35             
1 42877U 17042BE  18009.52290557  .00001719  00000-0  52335-4 0  9995
2 42877  96.9943 274.1801 0011543 323.1934  36.8517 15.35237533 27288
